<?xml version="1.0" encoding="UTF-8"?>
<ndm xmlns:xsi="http://www.w3.org/2001/XMLSchema-instance" xsi:noNamespaceSchemaLocation="https://sanaregistry.org/r/ndmxml_unqualified/ndmxml-2.0.0-master-2.0.xsd">
<omm id="CCSDS_OMM_VERS" version="2.0">
<header><CREATION_DATE/><ORIGINATOR/></header><body><segment><metadata><OBJECT_NAME>ONEWEB-0665</OBJECT_NAME><OBJECT_ID>2023-029AF</OBJECT_ID><CENTER_NAME>EARTH</CENTER_NAME><REF_FRAME>TEME</REF_FRAME><TIME_SYSTEM>UTC</TIME_SYSTEM><MEAN_ELEMENT_THEORY>SGP4</MEAN_ELEMENT_THEORY></metadata><data><meanElements><EPOCH>2025-04-22T05:26:54.829536</EPOCH><MEAN_MOTION>13.14502790</MEAN_MOTION><ECCENTRICITY>.0001747</ECCENTRICITY><INCLINATION>87.9096</INCLINATION><RA_OF_ASC_NODE>13.4519</RA_OF_ASC_NODE><ARG_OF_PERICENTER>71.3135</ARG_OF_PERICENTER><MEAN_ANOMALY>288.8184</MEAN_ANOMALY></meanElements><tleParameters><EPHEMERIS_TYPE>0</EPHEMERIS_TYPE><CLASSIFICATION_TYPE>U</CLASSIFICATION_TYPE><NORAD_CAT_ID>55825</NORAD_CAT_ID><ELEMENT_SET_NO>999</ELEMENT_SET_NO><REV_AT_EPOCH>10410</REV_AT_EPOCH><BSTAR>-.18823E-3</BSTAR><MEAN_MOTION_DOT>-.57E-6</MEAN_MOTION_DOT><MEAN_MOTION_DDOT>0</MEAN_MOTION_DDOT></tleParameters></data></segment></body></omm>
<omm id="CCSDS_OMM_VERS" version="2.0">
<header><CREATION_DATE/><ORIGINATOR/></header><body><segment><metadata><OBJECT_NAME>ONEWEB-0666</OBJECT_NAME><OBJECT_ID>2023-029AG</OBJECT_ID><CENTER_NAME>EARTH</CENTER_NAME><REF_FRAME>TEME</REF_FRAME><TIME_SYSTEM>UTC</TIME_SYSTEM><MEAN_ELEMENT_THEORY>SGP4</MEAN_ELEMENT_THEORY></metadata><data><meanElements><EPOCH>2025-04-22T04:54:43.129440</EPOCH><MEAN_MOTION>13.20772272</MEAN_MOTION><ECCENTRICITY>.000208</ECCENTRICITY><INCLINATION>87.9316</INCLINATION><RA_OF_ASC_NODE>358.3008</RA_OF_ASC_NODE><ARG_OF_PERICENTER>95.9835</ARG_OF_PERICENTER><MEAN_ANOMALY>264.1535</MEAN_ANOMALY></meanElements><tleParameters><EPHEMERIS_TYPE>0</EPHEMERIS_TYPE><CLASSIFICATION_TYPE>U</CLASSIFICATION_TYPE><NORAD_CAT_ID>55826</NORAD_CAT_ID><ELEMENT_SET_NO>999</ELEMENT_SET_NO><REV_AT_EPOCH>10558</REV_AT_EPOCH><BSTAR>.20291E-4</BSTAR><MEAN_MOTION_DOT>.21E-6</MEAN_MOTION_DOT><MEAN_MOTION_DDOT>0</MEAN_MOTION_DDOT></tleParameters></data></segment></body></omm>
<omm id="CCSDS_OMM_VERS" version="2.0">
<header><CREATION_DATE/><ORIGINATOR/></header><body><segment><metadata><OBJECT_NAME>ONEWEB-0667</OBJECT_NAME><OBJECT_ID>2023-029AH</OBJECT_ID><CENTER_NAME>EARTH</CENTER_NAME><REF_FRAME>TEME</REF_FRAME><TIME_SYSTEM>UTC</TIME_SYSTEM><MEAN_ELEMENT_THEORY>SGP4</MEAN_ELEMENT_THEORY></metadata><data><meanElements><EPOCH>2025-04-22T04:45:37.534176</EPOCH><MEAN_MOTION>13.20771962</MEAN_MOTION><ECCENTRICITY>.0001913</ECCENTRICITY><INCLINATION>87.9311</INCLINATION><RA_OF_ASC_NODE>358.2350</RA_OF_ASC_NODE><ARG_OF_PERICENTER>76.3713</ARG_OF_PERICENTER><MEAN_ANOMALY>283.7633</MEAN_ANOMALY></meanElements><tleParameters><EPHEMERIS_TYPE>0</EPHEMERIS_TYPE><CLASSIFICATION_TYPE>U</CLASSIFICATION_TYPE><NORAD_CAT_ID>55827</NORAD_CAT_ID><ELEMENT_SET_NO>999</ELEMENT_SET_NO><REV_AT_EPOCH>10557</REV_AT_EPOCH><BSTAR>.85942E-4</BSTAR><MEAN_MOTION_DOT>.48E-6</MEAN_MOTION_DOT><MEAN_MOTION_DDOT>0</MEAN_MOTION_DDOT></tleParameters></data></segment></body></omm>
<omm id="CCSDS_OMM_VERS" version="2.0">
<header><CREATION_DATE/><ORIGINATOR/></header><body><segment><metadata><OBJECT_NAME>ONEWEB-0669</OBJECT_NAME><OBJECT_ID>2023-029AJ</OBJECT_ID><CENTER_NAME>EARTH</CENTER_NAME><REF_FRAME>TEME</REF_FRAME><TIME_SYSTEM>UTC</TIME_SYSTEM><MEAN_ELEMENT_THEORY>SGP4</MEAN_ELEMENT_THEORY></metadata><data><meanElements><EPOCH>2025-04-22T04:38:48.880320</EPOCH><MEAN_MOTION>13.20770554</MEAN_MOTION><ECCENTRICITY>.0002534</ECCENTRICITY><INCLINATION>87.9316</INCLINATION><RA_OF_ASC_NODE>358.2708</RA_OF_ASC_NODE><ARG_OF_PERICENTER>92.2577</ARG_OF_PERICENTER><MEAN_ANOMALY>267.8846</MEAN_ANOMALY></meanElements><tleParameters><EPHEMERIS_TYPE>0</EPHEMERIS_TYPE><CLASSIFICATION_TYPE>U</CLASSIFICATION_TYPE><NORAD_CAT_ID>55828</NORAD_CAT_ID><ELEMENT_SET_NO>999</ELEMENT_SET_NO><REV_AT_EPOCH>10557</REV_AT_EPOCH><BSTAR>.14782E-3</BSTAR><MEAN_MOTION_DOT>.73E-6</MEAN_MOTION_DOT><MEAN_MOTION_DDOT>0</MEAN_MOTION_DDOT></tleParameters></data></segment></body></omm>
<omm id="CCSDS_OMM_VERS" version="2.0">
<header><CREATION_DATE/><ORIGINATOR/></header><body><segment><metadata><OBJECT_NAME>ONEWEB-0670</OBJECT_NAME><OBJECT_ID>2023-029AK</OBJECT_ID><CENTER_NAME>EARTH</CENTER_NAME><REF_FRAME>TEME</REF_FRAME><TIME_SYSTEM>UTC</TIME_SYSTEM><MEAN_ELEMENT_THEORY>SGP4</MEAN_ELEMENT_THEORY></metadata><data><meanElements><EPOCH>2025-04-22T06:44:33.340416</EPOCH><MEAN_MOTION>13.14502956</MEAN_MOTION><ECCENTRICITY>.0002118</ECCENTRICITY><INCLINATION>87.9114</INCLINATION><RA_OF_ASC_NODE>13.4560</RA_OF_ASC_NODE><ARG_OF_PERICENTER>77.0468</ARG_OF_PERICENTER><MEAN_ANOMALY>283.0898</MEAN_ANOMALY></meanElements><tleParameters><EPHEMERIS_TYPE>0</EPHEMERIS_TYPE><CLASSIFICATION_TYPE>U</CLASSIFICATION_TYPE><NORAD_CAT_ID>55829</NORAD_CAT_ID><ELEMENT_SET_NO>999</ELEMENT_SET_NO><REV_AT_EPOCH>10413</REV_AT_EPOCH><BSTAR>-.3018E-3</BSTAR><MEAN_MOTION_DOT>-.99E-6</MEAN_MOTION_DOT><MEAN_MOTION_DDOT>0</MEAN_MOTION_DDOT></tleParameters></data></segment></body></omm>
<omm id="CCSDS_OMM_VERS" version="2.0">
<header><CREATION_DATE/><ORIGINATOR/></header><body><segment><metadata><OBJECT_NAME>ONEWEB-0671</OBJECT_NAME><OBJECT_ID>2023-029AL</OBJECT_ID><CENTER_NAME>EARTH</CENTER_NAME><REF_FRAME>TEME</REF_FRAME><TIME_SYSTEM>UTC</TIME_SYSTEM><MEAN_ELEMENT_THEORY>SGP4</MEAN_ELEMENT_THEORY></metadata><data><meanElements><EPOCH>2025-04-22T06:43:39.009504</EPOCH><MEAN_MOTION>13.19727490</MEAN_MOTION><ECCENTRICITY>.000193</ECCENTRICITY><INCLINATION>87.9266</INCLINATION><RA_OF_ASC_NODE>28.6443</RA_OF_ASC_NODE><ARG_OF_PERICENTER>75.7915</ARG_OF_PERICENTER><MEAN_ANOMALY>284.3432</MEAN_ANOMALY></meanElements><tleParameters><EPHEMERIS_TYPE>0</EPHEMERIS_TYPE><CLASSIFICATION_TYPE>U</CLASSIFICATION_TYPE><NORAD_CAT_ID>55830</NORAD_CAT_ID><ELEMENT_SET_NO>999</ELEMENT_SET_NO><REV_AT_EPOCH>10338</REV_AT_EPOCH><BSTAR>.12519E-3</BSTAR><MEAN_MOTION_DOT>.63E-6</MEAN_MOTION_DOT><MEAN_MOTION_DDOT>0</MEAN_MOTION_DDOT></tleParameters></data></segment></body></omm>
<omm id="CCSDS_OMM_VERS" version="2.0">
<header><CREATION_DATE/><ORIGINATOR/></header><body><segment><metadata><OBJECT_NAME>ONEWEB-0672</OBJECT_NAME><OBJECT_ID>2023-029AM</OBJECT_ID><CENTER_NAME>EARTH</CENTER_NAME><REF_FRAME>TEME</REF_FRAME><TIME_SYSTEM>UTC</TIME_SYSTEM><MEAN_ELEMENT_THEORY>SGP4</MEAN_ELEMENT_THEORY></metadata><data><meanElements><EPOCH>2025-04-22T15:26:31.797312</EPOCH><MEAN_MOTION>13.20772215</MEAN_MOTION><ECCENTRICITY>.0001991</ECCENTRICITY><INCLINATION>87.9324</INCLINATION><RA_OF_ASC_NODE>358.1661</RA_OF_ASC_NODE><ARG_OF_PERICENTER>93.8294</ARG_OF_PERICENTER><MEAN_ANOMALY>266.3067</MEAN_ANOMALY></meanElements><tleParameters><EPHEMERIS_TYPE>0</EPHEMERIS_TYPE><CLASSIFICATION_TYPE>U</CLASSIFICATION_TYPE><NORAD_CAT_ID>55831</NORAD_CAT_ID><ELEMENT_SET_NO>999</ELEMENT_SET_NO><REV_AT_EPOCH>10563</REV_AT_EPOCH><BSTAR>.25238E-3</BSTAR><MEAN_MOTION_DOT>.116E-5</MEAN_MOTION_DOT><MEAN_MOTION_DDOT>0</MEAN_MOTION_DDOT></tleParameters></data></segment></body></omm>
<omm id="CCSDS_OMM_VERS" version="2.0">
<header><CREATION_DATE/><ORIGINATOR/></header><body><segment><metadata><OBJECT_NAME>ONEWEB-0673</OBJECT_NAME><OBJECT_ID>2023-029AN</OBJECT_ID><CENTER_NAME>EARTH</CENTER_NAME><REF_FRAME>TEME</REF_FRAME><TIME_SYSTEM>UTC</TIME_SYSTEM><MEAN_ELEMENT_THEORY>SGP4</MEAN_ELEMENT_THEORY></metadata><data><meanElements><EPOCH>2025-04-22T06:09:31.115232</EPOCH><MEAN_MOTION>13.19726349</MEAN_MOTION><ECCENTRICITY>.0001697</ECCENTRICITY><INCLINATION>87.9267</INCLINATION><RA_OF_ASC_NODE>28.6130</RA_OF_ASC_NODE><ARG_OF_PERICENTER>72.9356</ARG_OF_PERICENTER><MEAN_ANOMALY>287.1963</MEAN_ANOMALY></meanElements><tleParameters><EPHEMERIS_TYPE>0</EPHEMERIS_TYPE><CLASSIFICATION_TYPE>U</CLASSIFICATION_TYPE><NORAD_CAT_ID>55832</NORAD_CAT_ID><ELEMENT_SET_NO>999</ELEMENT_SET_NO><REV_AT_EPOCH>10338</REV_AT_EPOCH><BSTAR>.22919E-3</BSTAR><MEAN_MOTION_DOT>.105E-5</MEAN_MOTION_DOT><MEAN_MOTION_DDOT>0</MEAN_MOTION_DDOT></tleParameters></data></segment></body></omm>

</ndm>
