ONEWEB-0665             
1 55825U 23029AF  25112.22702349 -.00000057  00000+0 -18823-3 0  9999
2 55825  87.9096  13.4519 0001747  71.3135 288.8184 13.14502790104105
ONEWEB-0666             
1 55826U 23029AG  25112.20466585  .00000021  00000+0  20291-4 0  9999
2 55826  87.9316 358.3008 0002080  95.9835 264.1535 13.20772272105586
ONEWEB-0667             
1 55827U 23029AH  25112.19835109  .00000048  00000+0  85942-4 0  9993
2 55827  87.9311 358.2350 0001913  76.3713 283.7633 13.20771962105573
ONEWEB-0669             
1 55828U 23029AJ  25112.19362130  .00000073  00000+0  14782-3 0  9994
2 55828  87.9316 358.2708 0002534  92.2577 267.8846 13.20770554105576
ONEWEB-0670             
1 55829U 23029AK  25112.28094144 -.00000099  00000+0 -30180-3 0  9992
2 55829  87.9114  13.4560 0002118  77.0468 283.0898 13.14502956104137
ONEWEB-0671             
1 55830U 23029AL  25112.28031261  .00000063  00000+0  12519-3 0  9990
2 55830  87.9266  28.6443 0001930  75.7915 284.3432 13.19727490103389
ONEWEB-0672             
1 55831U 23029AM  25112.64342358  .00000116  00000+0  25238-3 0  9994
2 55831  87.9324 358.1661 0001991  93.8294 266.3067 13.20772215105637
ONEWEB-0673             
1 55832U 23029AN  25112.25661013  .00000105  00000+0  22919-3 0  9995
2 55832  87.9267  28.6130 0001697  72.9356 287.1963 13.19726349103385
